NORAD_CAT_ID,OBJECT_NAME,OBJECT_TYPE,EPOCH,MEAN_MOTION,ECCENTRICITY,INCLINATION,RA_OF_ASC_NODE,ARG_OF_PERICENTER,MEAN_ANOMALY,BSTAR,MEAN_MOTION_DOT,MEAN_MOTION_DDOT,TLE_LINE0,TLE_LINE1,TLE_LINE2,SEMIMAJOR_AXIS,PERIOD,APOGEE,PERIGEE,DECAYED
54770.0,STARLINK-5448,PAYLOAD,2023-04-01 05:56:17,15.08829839,0.0001143,53.2181,168.1749,113.512,246.5992,0.00052829,8.128e-05,0.0,0 STARLINK-5448,1 54770U 22175N   23091.24742620  .00008128  00000-0  52829-3 0  9990,2 54770  53.2181 168.1749 0001143 113.5120 246.5992 15.08829839 15919,6917.911,95.438,540.567,538.986,0.0
54770.0,STARLINK-5448,PAYLOAD,2023-04-01 12:17:50,15.0883167,0.0001149,53.2173,166.985,106.2149,253.897,0.0018577,0.00029394,0.0,0 STARLINK-5448,1 54770U 22175N   23091.51239168  .00029394  00000-0  18577-2 0  9997,2 54770  53.2173 166.9850 0001149 106.2149 253.8970 15.08831670 18113,6917.906,95.438,540.566,538.976,0.0
54770.0,STARLINK-5448,PAYLOAD,2023-04-01 21:50:09,15.08843843,0.0001325,53.2173,165.2014,94.518,265.5963,0.0019257,0.00030496,0.0,0 STARLINK-5448,1 54770U 22175N   23091.90983556  .00030496  00000-0  19257-2 0  9998,2 54770  53.2173 165.2014 0001325  94.5180 265.5963 15.08843843 18170,6917.869,95.437,540.65,538.817,0.0
54770.0,STARLINK-5448,PAYLOAD,2023-04-02 13:44:00,15.08861075,0.0001259,53.2173,162.2277,90.458,269.6556,0.0014756,0.00023288,0.0,0 STARLINK-5448,1 54770U 22175N   23092.57223194  .00023288  00000-0  14756-2 0  9997,2 54770  53.2173 162.2277 0001259  90.4580 269.6556 15.08861075 16115,6917.816,95.436,540.552,538.81,0.0
54770.0,STARLINK-5448,PAYLOAD,2023-04-02 21:40:56,15.08843572,6.99e-05,53.217,160.7432,75.3492,284.7578,0.00021417,3.123e-05,0.0,0 STARLINK-5448,1 54770U 22175N   23092.90343095  .00003123  00000-0  21417-3 0  9996,2 54770  53.2170 160.7432 0000699  75.3492 284.7578 15.08843572 18328,6917.869,95.437,540.218,539.251,0.0
54770.0,STARLINK-5448,PAYLOAD,2023-04-03 13:34:48,15.08841537,0.0001364,53.2174,157.7674,76.3803,283.7341,0.00033293,5.015e-05,0.0,0 STARLINK-5448,1 54770U 22175N   23093.56583508  .00005015  00000-0  33293-3 0  9991,2 54770  53.2174 157.7674 0001364  76.3803 283.7341 15.08841537 18420,6917.876,95.437,540.684,538.797,0.0
54770.0,STARLINK-5448,PAYLOAD,2023-04-03 21:31:44,15.0883912,0.0001473,53.2176,156.2796,74.6634,285.4521,0.00041841,6.377e-05,0.0,0 STARLINK-5448,1 54770U 22175N   23093.89703708  .00006377  00000-0  41841-3 0  9993,2 54770  53.2176 156.2796 0001473  74.6634 285.4521 15.08839120 16315,6917.883,95.438,540.767,538.729,0.0
54770.0,STARLINK-5448,PAYLOAD,2023-04-04 10:14:48,15.08855926,0.0001432,53.2174,153.9,73.0248,287.0901,0.00083816,0.00013082,0.0,0 STARLINK-5448,1 54770U 22175N   23094.42695329  .00013082  00000-0  83816-3 0  9991,2 54770  53.2174 153.9000 0001432  73.0248 287.0901 15.08855926 18554,6917.832,95.437,540.687,538.706,0.0
54770.0,STARLINK-5448,PAYLOAD,2023-04-04 15:00:57,15.08861917,0.0001431,53.2169,153.0078,73.002,287.1129,0.00084522,0.00013197,0.0,0 STARLINK-5448,1 54770U 22175N   23094.62567026  .00013197  00000-0  84522-3 0  9997,2 54770  53.2169 153.0078 0001431  73.0020 287.1129 15.08861917 16425,6917.813,95.436,540.668,538.688,0.0
54770.0,STARLINK-5448,PAYLOAD,2023-04-05 03:44:03,15.08839342,0.0001046,53.218,150.6292,77.9243,282.1866,-8.3206e-05,-1.612e-05,0.0,0 STARLINK-5448,1 54770U 22175N   23095.15559279 -.00001612  00000-0 -83206-4 0  9997,2 54770  53.2180 150.6292 0001046  77.9243 282.1866 15.08839342 16500,6917.882,95.438,540.471,539.024,0.0
54770.0,STARLINK-5448,PAYLOAD,2023-04-05 10:05:35,15.08845123,0.0001328,53.2169,149.44,74.181,285.9328,0.00029768,4.453e-05,0.0,0 STARLINK-5448,1 54770U 22175N   23095.42055265  .00004453  00000-0  29768-3 0  9999,2 54770  53.2169 149.4400 0001328  74.1810 285.9328 15.08845123 18708,6917.865,95.437,540.648,538.811,0.0
54770.0,STARLINK-5448,PAYLOAD,2023-04-05 14:51:45,15.08845693,0.0001311,53.2167,148.5474,82.7002,277.4139,0.00043262,6.605e-05,0.0,0 STARLINK-5448,1 54770U 22175N   23095.61927231  .00006605  00000-0  43262-3 0  9997,2 54770  53.2167 148.5474 0001311  82.7002 277.4139 15.08845693 18738,6917.863,95.437,540.635,538.821,0.0
54770.0,STARLINK-5448,PAYLOAD,2023-04-06 09:56:22,15.08844597,0.0001405,53.2171,144.9798,75.5934,284.5214,0.0001934,2.792e-05,0.0,0 STARLINK-5448,1 54770U 22175N   23096.41415336  .00002792  00000-0  19340-3 0  9997,2 54770  53.2171 144.9798 0001405  75.5934 284.5214 15.08844597 16698,6917.866,95.437,540.703,538.759,0.0
54770.0,STARLINK-5448,PAYLOAD,2023-04-06 13:07:09,15.0884559,0.0001377,53.217,144.3845,85.6221,274.4928,0.00026992,4.011e-05,0.0,0 STARLINK-5448,1 54770U 22175N   23096.54663290  .00004011  00000-0  26992-3 0  9992,2 54770  53.2170 144.3845 0001377  85.6221 274.4928 15.08845590 18879,6917.863,95.437,540.681,538.776,0.0
54770.0,STARLINK-5448,PAYLOAD,2023-04-06 14:42:32,15.08849759,0.0001443,53.2172,144.0877,76.9528,283.1625,0.00031776,4.774e-05,0.0,0 STARLINK-5448,1 54770U 22175N   23096.61287139  .00004774  00000-0  31776-3 0  9996,2 54770  53.2172 144.0877 0001443  76.9528 283.1625 15.08849759 18883,6917.851,95.437,540.714,538.717,0.0
54770.0,STARLINK-5448,PAYLOAD,2023-04-07 08:11:46,15.0884481,0.0001569,53.2173,140.8155,105.1285,254.9881,0.00016768,2.382e-05,0.0,0 STARLINK-5448,1 54770U 22175N   23097.34151210  .00002382  00000-0  16768-3 0  9994,2 54770  53.2173 140.8155 0001569 105.1285 254.9881 15.08844810 18996,6917.866,95.437,540.816,538.645,0.0
54770.0,STARLINK-5448,PAYLOAD,2023-04-07 19:19:28,15.08836462,9.8e-05,53.2175,138.7352,94.4295,265.6809,-6.7961e-05,-1.369e-05,0.0,0 STARLINK-5448,1 54770U 22175N   23097.80519243 -.00001369  00000-0 -67961-4 0  9997,2 54770  53.2175 138.7352 0000980  94.4295 265.6809 15.08836462 16902,6917.891,95.438,540.434,539.078,0.0
54770.0,STARLINK-5448,PAYLOAD,2023-04-08 09:37:56,15.0884238,0.0001206,53.2165,136.0595,85.7901,274.3229,0.00027692,4.122e-05,0.0,0 STARLINK-5448,1 54770U 22175N   23098.40135338  .00004122  00000-0  27692-3 0  9997,2 54770  53.2165 136.0595 0001206  85.7901 274.3229 15.08842380 19159,6917.873,95.437,540.572,538.904,0.0
54770.0,STARLINK-5448,PAYLOAD,2023-04-09 09:28:44,15.08843122,0.0001219,53.2161,131.5983,88.1504,271.9628,0.00025719,3.808e-05,0.0,0 STARLINK-5448,1 54770U 22175N   23099.39495406  .00003808  00000-0  25719-3 0  9999,2 54770  53.2161 131.5983 0001219  88.1504 271.9628 15.08843122 17144,6917.871,95.437,540.579,538.893,0.0
54770.0,STARLINK-5448,PAYLOAD,2023-04-09 19:01:02,15.08838921,5.99e-05,53.2166,129.8164,112.441,247.6645,3.9852e-05,3.47e-06,0.0,0 STARLINK-5448,1 54770U 22175N   23099.79239130  .00000347  00000-0  39852-4 0  9992,2 54770  53.2166 129.8164 0000599 112.4410 247.6645 15.08838921 19363,6917.884,95.438,540.163,539.334,0.0
54770.0,STARLINK-5448,PAYLOAD,2023-04-10 10:54:54,15.08840594,0.0001422,53.2171,126.839,81.056,279.0593,0.00012614,1.72e-05,0.0,0 STARLINK-5448,1 54770U 22175N   23100.45479632  .00001720  00000-0  12614-3 0  9993,2 54770  53.2171 126.8390 0001422  81.0560 279.0593 15.08840594 17302,6917.879,95.438,540.727,538.76,0.0
54770.0,STARLINK-5448,PAYLOAD,2023-04-10 18:51:50,15.0884224,0.0001328,53.2177,125.3535,87.1556,272.9588,0.00014273,1.985e-05,0.0,0 STARLINK-5448,1 54770U 22175N   23100.78599569  .00001985  00000-0  14273-3 0  9997,2 54770  53.2177 125.3535 0001328  87.1556 272.9588 15.08842240 19511,6917.874,95.437,540.657,538.82,0.0
54770.0,STARLINK-5448,PAYLOAD,2023-04-11 09:10:18,15.08847086,0.000129,53.2167,122.6787,81.979,278.1349,0.00021354,3.113e-05,0.0,0 STARLINK-5448,1 54770U 22175N   23101.38215396  .00003113  00000-0  21354-3 0  9990,2 54770  53.2167 122.6787 0001290  81.9790 278.1349 15.08847086 19605,6917.859,95.437,540.616,538.831,0.0
54770.0,STARLINK-5448,PAYLOAD,2023-04-11 18:42:37,15.08831753,8.1e-05,53.2186,120.893,83.5831,276.5254,-9.6763e-05,-1.827e-05,0.0,0 STARLINK-5448,1 54770U 22175N   23101.77959780 -.00001827  00000-0 -96763-4 0  9994,2 54770  53.2186 120.8930 0000810  83.5831 276.5254 15.08831753 17505,6917.906,95.438,540.331,539.21,0.0
54770.0,STARLINK-5448,PAYLOAD,2023-04-12 12:11:52,15.08838049,0.0001333,53.2167,117.6234,75.6199,284.4941,0.0001155,1.551e-05,0.0,0 STARLINK-5448,1 54770U 22175N   23102.50824139  .00001551  00000-0  11550-3 0  9997,2 54770  53.2167 117.6234 0001333  75.6199 284.4941 15.08838049 19772,6917.886,95.438,540.674,538.829,0.0
54770.0,STARLINK-5448,PAYLOAD,2023-04-12 18:33:24,15.0884063,0.0001321,53.2169,116.434,75.2287,284.8851,0.00017928,2.567e-05,0.0,0 STARLINK-5448,1 54770U 22175N   23102.77320143  .00002567  00000-0  17928-3 0  9995,2 54770  53.2169 116.4340 0001321  75.2287 284.8851 15.08840630 17658,6917.878,95.438,540.657,538.83,0.0
54770.0,STARLINK-5448,PAYLOAD,2023-04-13 10:27:15,15.08850746,0.0001349,53.217,113.4599,75.8742,284.24,0.00048083,7.375e-05,0.0,0 STARLINK-5448,1 54770U 22175N   23103.43559971  .00007375  00000-0  48083-3 0  9990,2 54770  53.2170 113.4599 0001349  75.8742 284.2400 15.08850746 19919,6917.848,95.437,540.646,538.779,0.0
54770.0,STARLINK-5448,PAYLOAD,2023-04-14 07:07:16,15.08843502,0.000128,53.2159,109.5933,81.6139,278.4998,0.00019219,2.772e-05,0.0,0 STARLINK-5448,1 54770U 22175N   23104.29671987  .00002772  00000-0  19219-3 0  9992,2 54770  53.2159 109.5933 0001280  81.6139 278.4998 15.08843502 20048,6917.87,95.437,540.62,538.849,0.0
54770.0,STARLINK-5448,PAYLOAD,2023-04-15 00:36:31,15.08840983,0.0001392,53.2168,106.3233,92.2934,267.8217,5.669e-05,6.14e-06,0.0,0 STARLINK-5448,1 54770U 22175N   23105.02536022  .00000614  00000-0  56690-4 0  9992,2 54770  53.2168 106.3233 0001392  92.2934 267.8217 15.08840983 17997,6917.877,95.437,540.705,538.779,0.0
54770.0,STARLINK-5448,PAYLOAD,2023-04-15 05:22:40,15.08841557,0.0001369,53.2169,105.4311,93.9214,266.1935,2.9492e-05,1.81e-06,0.0,0 STARLINK-5448,1 54770U 22175N   23105.22407934  .00000181  00000-0  29492-4 0  9992,2 54770  53.2169 105.4311 0001369  93.9214 266.1935 15.08841557 20180,6917.876,95.437,540.688,538.794,0.0
